$$SOE
2461302.500000000, A.D. 2026-Sep-19 00:00:00.0000, -4.973136466352143E+08, -1.724838427704382E+07, 6.611112457655577E+07,
2461309.500000000, A.D. 2026-Sep-26 00:00:00.0000, -4.969828465003442E+08, -2.683142166642784E+07, 6.691813173131061E+07,
2461316.500000000, A.D. 2026-Oct-03 00:00:00.0000, -4.964615299460402E+08, -3.640411268304503E+07, 6.769947877747533E+07,
2461323.500000000, A.D. 2026-Oct-10 00:00:00.0000, -4.957501159767420E+08, -4.596280803779159E+07, 6.845489609864262E+07,
2461330.500000000, A.D. 2026-Oct-17 00:00:00.0000, -4.948490856452565E+08, -5.550387138631147E+07, 6.918412330693959E+07,
2461337.500000000, A.D. 2026-Oct-24 00:00:00.0000, -4.937589817054770E+08, -6.502368015944580E+07, 6.988690925867665E+07,
2461344.500000000, A.D. 2026-Oct-31 00:00:00.0000, -4.924804081784266E+08, -7.451862654513054E+07, 7.056301204718423E+07,
2461351.500000000, A.D. 2026-Nov-07 00:00:00.0000, -4.910140294926239E+08, -8.398511854821126E+07, 7.121219894801193E+07,
2461358.500000000, A.D. 2026-Nov-14 00:00:00.0000, -4.893605689977884E+08, -9.341958024129160E+07, 7.183424637080728E+07,
2461365.500000000, A.D. 2026-Nov-21 00:00:00.0000, -4.875208086633650E+08, -1.028184505255893E+08, 7.242894003996113E+07,
2461372.500000000, A.D. 2026-Nov-28 00:00:00.0000, -4.854955909605887E+08, -1.121781834111197E+08, 7.299607525011382E+07,
2461379.500000000, A.D. 2026-Dec-05 00:00:00.0000, -4.832858193099002E+08, -1.214952504731135E+08, 7.353545681153892E+07,
2461386.500000000, A.D. 2026-Dec-12 00:00:00.0000, -4.808924569286658E+08, -1.307661423733964E+08, 7.404689892491004E+07,
2461393.500000000, A.D. 2026-Dec-19 00:00:00.0000, -4.783165259653363E+08, -1.399873694407436E+08, 7.453022515914536E+07,
2461400.500000000, A.D. 2026-Dec-26 00:00:00.0000, -4.755591070622665E+08, -1.491554621795922E+08, 7.498526847462629E+07,
2461407.500000000, A.D. 2027-Jan-02 00:00:00.0000, -4.726213390722821E+08, -1.582669718992876E+08, 7.541187125124751E+07,
2461414.500000000, A.D. 2027-Jan-09 00:00:00.0000, -4.695044188133547E+08, -1.673184714445532E+08, 7.580988531258430E+07,
2461421.500000000, A.D. 2027-Jan-16 00:00:00.0000, -4.662096008275112E+08, -1.763065560190274E+08, 7.617917194392534E+07,
2461428.500000000, A.D. 2027-Jan-23 00:00:00.0000, -4.627381970996343E+08, -1.852278441420144E+08, 7.651960189687799E+07,
2461435.500000000, A.D. 2027-Jan-30 00:00:00.0000, -4.590915765500656E+08, -1.940789787864755E+08, 7.683105535946372E+07,
2461442.500000000, A.D. 2027-Feb-06 00:00:00.0000, -4.552711638774819E+08, -2.028566283581238E+08, 7.711342188037443E+07,
2461449.500000000, A.D. 2027-Feb-13 00:00:00.0000, -4.512784382126308E+08, -2.115574862957398E+08, 7.736660038884419E+07,
2461456.500000000, A.D. 2027-Feb-20 00:00:00.0000, -4.471149339463267E+08, -2.201782700842770E+08, 7.759049946167991E+07,
2461463.500000000, A.D. 2027-Feb-27 00:00:00.0000, -4.427822423360559E+08, -2.287157228962372E+08, 7.778503744647504E+07,
2461470.500000000, A.D. 2027-Mar-06 00:00:00.0000, -4.382820108743031E+08, -2.371666159403883E+08, 7.795014232142375E+07,
2461477.500000000, A.D. 2027-Mar-13 00:00:00.0000, -4.336159420194743E+08, -2.455277494690872E+08, 7.808575160606909E+07,
2461484.500000000, A.D. 2027-Mar-20 00:00:00.0000, -4.287857924190043E+08, -2.537959532794925E+08, 7.819181235831730E+07,
2461491.500000000, A.D. 2027-Mar-27 00:00:00.0000, -4.237933724230618E+08, -2.619680872583885E+08, 7.826828119435695E+07,
2461498.500000000, A.D. 2027-Apr-03 00:00:00.0000, -4.186405456865349E+08, -2.700410420188391E+08, 7.831512430906153E+07,
2461505.500000000, A.D. 2027-Apr-10 00:00:00.0000, -4.133292287983134E+08, -2.780117396056268E+08, 7.833231749316750E+07,
2461512.500000000, A.D. 2027-Apr-17 00:00:00.0000, -4.078613909155016E+08, -2.858771342835768E+08, 7.831984614391829E+07,
2461519.500000000, A.D. 2027-Apr-24 00:00:00.0000, -4.022390533226454E+08, -2.936342134707851E+08, 7.827770525661659E+07,
2461526.500000000, A.D. 2027-May-01 00:00:00.0000, -3.964642886154402E+08, -3.012799987889426E+08, 7.820589937163994E+07,
2461533.500000000, A.D. 2027-May-08 00:00:00.0000, -3.905392192004924E+08, -3.088115464824511E+08, 7.810444250965784E+07,
2461540.500000000, A.D. 2027-May-15 00:00:00.0000, -3.844660166066938E+08, -3.162259462530962E+08, 7.797335831000033E+07,
2461547.500000000, A.D. 2027-May-22 00:00:00.0000, -3.782469031708432E+08, -3.235203211027544E+08, 7.781268030366296E+07,
2461554.500000000, A.D. 2027-May-29 00:00:00.0000, -3.718841527415395E+08, -3.306918296540210E+08, 7.762245189344758E+07,
2461561.500000000, A.D. 2027-Jun-05 00:00:00.0000, -3.653800895170650E+08, -3.377376678178656E+08, 7.740272621649057E+07,
2461568.500000000, A.D. 2027-Jun-12 00:00:00.0000, -3.587370870246119E+08, -3.446550693763723E+08, 7.715356610878564E+07,
2461575.500000000, A.D. 2027-Jun-19 00:00:00.0000, -3.519575675711197E+08, -3.514413064154651E+08, 7.687504412566525E+07,
2461582.500000000, A.D. 2027-Jun-26 00:00:00.0000, -3.450440018855843E+08, -3.580936898692983E+08, 7.656724257132387E+07,
2461589.500000000, A.D. 2027-Jul-03 00:00:00.0000, -3.379989088203114E+08, -3.646095701686085E+08, 7.623025352615437E+07,
2461596.500000000, A.D. 2027-Jul-10 00:00:00.0000, -3.308248550740689E+08, -3.709863379847603E+08, 7.586417886952065E+07,
2461603.500000000, A.D. 2027-Jul-17 00:00:00.0000, -3.235244549005018E+08, -3.772214251085515E+08, 7.546913029171805E+07,
2461610.500000000, A.D. 2027-Jul-24 00:00:00.0000, -3.161003696449264E+08, -3.833123055266799E+08, 7.504522927584065E+07,
2461617.500000000, A.D. 2027-Jul-31 00:00:00.0000, -3.085553066975117E+08, -3.892564964604019E+08, 7.459260703121106E+07,
2461624.500000000, A.D. 2027-Aug-07 00:00:00.0000, -3.008920180628508E+08, -3.950515582145171E+08, 7.411140449094601E+07,
2461631.500000000, A.D. 2027-Aug-14 00:00:00.0000, -2.931133008458990E+08, -4.006950930897036E+08, 7.360177256385081E+07,
2461638.500000000, A.D. 2027-Aug-21 00:00:00.0000, -2.852219990348335E+08, -4.061847467228329E+08, 7.306387230884936E+07,
2461645.500000000, A.D. 2027-Aug-28 00:00:00.0000, -2.772210031494125E+08, -4.115182106532196E+08, 7.249787481571728E+07,
2461652.500000000, A.D. 2027-Sep-04 00:00:00.0000, -2.691132489359819E+08, -4.166932236129823E+08, 7.190396110499714E+07,
2461659.500000000, A.D. 2027-Sep-11 00:00:00.0000, -2.609017165039436E+08, -4.217075722025681E+08, 7.128232212077327E+07,
2461666.500000000, A.D. 2027-Sep-18 00:00:00.0000, -2.525894297696584E+08, -4.265590916012872E+08, 7.063315875054516E+07,
2461673.500000000, A.D. 2027-Sep-25 00:00:00.0000, -2.441794559780748E+08, -4.312456663903373E+08, 6.995668184446810E+07,
2461680.500000000, A.D. 2027-Oct-02 00:00:00.0000, -2.356749052264512E+08, -4.357652314606658E+08, 6.925311222902250E+07,
2461687.500000000, A.D. 2027-Oct-09 00:00:00.0000, -2.270789299673870E+08, -4.401157730097206E+08, 6.852268071241534E+07,
2461694.500000000, A.D. 2027-Oct-16 00:00:00.0000, -2.183947244275279E+08, -4.442953296808580E+08, 6.776562807105461E+07,
2461701.500000000, A.D. 2027-Oct-23 00:00:00.0000, -2.096255236810480E+08, -4.483019938495719E+08, 6.698220499226356E+07,
2461708.500000000, A.D. 2027-Oct-30 00:00:00.0000, -2.007746020015700E+08, -4.521339124448509E+08, 6.617267198817500E+07,
2461715.500000000, A.D. 2027-Nov-06 00:00:00.0000, -1.918452716540264E+08, -4.557892861766346E+08, 6.533729947922903E+07,
2461722.500000000, A.D. 2027-Nov-13 00:00:00.0000, -1.828408841098964E+08, -4.592663692453860E+08, 6.447636805937330E+07,
2461729.500000000, A.D. 2027-Nov-20 00:00:00.0000, -1.737648307826136E+08, -4.625634717207601E+08, 6.359016849826398E+07,
2461736.500000000, A.D. 2027-Nov-27 00:00:00.0000, -1.646205416655699E+08, -4.656789616264421E+08, 6.267900157482323E+07,
2461743.500000000, A.D. 2027-Dec-04 00:00:00.0000, -1.554114838967073E+08, -4.686112658175070E+08, 6.174317800271951E+07,
2461750.500000000, A.D. 2027-Dec-11 00:00:00.0000, -1.461411608002336E+08, -4.713588706134329E+08, 6.078301841945578E+07,
2461757.500000000, A.D. 2027-Dec-18 00:00:00.0000, -1.368131111298771E+08, -4.739203225246243E+08, 5.979885338591877E+07,
2461764.500000000, A.D. 2027-Dec-25 00:00:00.0000, -1.274309083606295E+08, -4.762942290734229E+08, 5.879102338200116E+07,
2461771.500000000, A.D. 2028-Jan-01 00:00:00.0000, -1.179981599863054E+08, -4.784792596942118E+08, 5.775987879550166E+07,
$$EOE